{
  "type": "FeatureCollection",
  "features": [
    {
      "type": "Feature",
      "properties": {
        "norad_id": 59626,
        "name": "LEGION 2",
        "group": "resource",
        "lat": -65.88151544886937,
        "lon": 76.81003287533193,
        "alt_km": 519.864184055943,
        "timestamp": "2025-12-10T21:43:21.744456+00:00",
        "meta_object_name": "LEGION 2",
        "meta_object_id": "2024-081B",
        "meta_epoch": "2025-12-10T14:05:57.643008",
        "meta_mean_motion": 15.1645695,
        "meta_eccentricity": 0.00057765,
        "meta_inclination": 97.5213,
        "meta_ra_of_asc_node": 59.3311,
        "meta_arg_of_pericenter": 302.878,
        "meta_mean_anomaly": 57.1897,
        "meta_ephemeris_type": 0,
        "meta_classification_type": "U",
        "meta_norad_cat_id": 59626,
        "meta_element_set_no": 999,
        "meta_rev_at_epoch": 8895,
        "meta_bstar": 0.00038265871,
        "meta_mean_motion_dot": 7.383e-05,
        "meta_mean_motion_ddot": 0,
        "tle_line1": "1 59626U 24081B   25344.58747272  .00007383  00000+0  38266-3 0  9991",
        "tle_line2": "2 59626  97.5213  59.3311 0005776 302.8780  57.1897 15.16456950 88951"
      },
      "geometry": {
        "type": "Point",
        "coordinates": [
          76.81003287533193,
          -65.88151544886937
        ]
      }
    },
    {
      "type": "Feature",
      "properties": {
        "norad_id": 60182,
        "name": "ALOS-4 (DAICHI-4)",
        "group": "resource",
        "lat": -14.21000629731325,
        "lon": -102.24261280321146,
        "alt_km": 635.7118042599368,
        "timestamp": "2025-12-10T21:43:21.744466+00:00",
        "meta_object_name": "ALOS-4 (DAICHI-4)",
        "meta_object_id": "2024-123A",
        "meta_epoch": "2025-12-10T12:43:54.253920",
        "meta_mean_motion": 14.79476033,
        "meta_eccentricity": 0.00014216,
        "meta_inclination": 97.9225,
        "meta_ra_of_asc_node": 79.409,
        "meta_arg_of_pericenter": 101.2731,
        "meta_mean_anomaly": 258.864,
        "meta_ephemeris_type": 0,
        "meta_classification_type": "U",
        "meta_norad_cat_id": 60182,
        "meta_element_set_no": 999,
        "meta_rev_at_epoch": 7798,
        "meta_bstar": 0.00038722943,
        "meta_mean_motion_dot": 2.842e-05,
        "meta_mean_motion_ddot": 0,
        "tle_line1": "1 60182U 24123A   25344.53048905  .00002842  00000+0  38723-3 0  9992",
        "tle_line2": "2 60182  97.9225  79.4090 0001421 101.2731 258.8640 14.79476033 77983"
      },
      "geometry": {
        "type": "Point",
        "coordinates": [
          -102.24261280321146,
          -14.21000629731325
        ]
      }
    },
    {
      "type": "Feature",
      "properties": {
        "norad_id": 60452,
        "name": "LEGION 3",
        "group": "resource",
        "lat": -21.043902443682274,
        "lon": -62.67552480540043,
        "alt_km": 528.8343219943436,
        "timestamp": "2025-12-10T21:43:21.744477+00:00",
        "meta_object_name": "LEGION 3",
        "meta_object_id": "2024-146A",
        "meta_epoch": "2025-12-10T10:47:06.031104",
        "meta_mean_motion": 15.15723032,
        "meta_eccentricity": 0.00146431,
        "meta_inclination": 45.0022,
        "meta_ra_of_asc_node": 322.4112,
        "meta_arg_of_pericenter": 186.3263,
        "meta_mean_anomaly": 173.7433,
        "meta_ephemeris_type": 0,
        "meta_classification_type": "U",
        "meta_norad_cat_id": 60452,
        "meta_element_set_no": 999,
        "meta_rev_at_epoch": 7338,
        "meta_bstar": 0.00041865076,
        "meta_mean_motion_dot": 7.877e-05,
        "meta_mean_motion_ddot": 0,
        "tle_line1": "1 60452U 24146A   25344.44937536  .00007877  00000+0  41865-3 0  9998",
        "tle_line2": "2 60452  45.0022 322.4112 0014643 186.3263 173.7433 15.15723032 73382"
      },
      "geometry": {
        "type": "Point",
        "coordinates": [
          -62.67552480540043,
          -21.043902443682274
        ]
      }
    },
    {
      "type": "Feature",
      "properties": {
        "norad_id": 60453,
        "name": "LEGION 4",
        "group": "resource",
        "lat": -23.419279905338087,
        "lon": 26.06322488824045,
        "alt_km": 514.9470248634325,
        "timestamp": "2025-12-10T21:43:21.744487+00:00",
        "meta_object_name": "LEGION 4",
        "meta_object_id": "2024-146B",
        "meta_epoch": "2025-12-10T13:57:51.478848",
        "meta_mean_motion": 15.1578813,
        "meta_eccentricity": 0.00096762,
        "meta_inclination": 45.0385,
        "meta_ra_of_asc_node": 53.445,
        "meta_arg_of_pericenter": 300.037,
        "meta_mean_anomaly": 59.9549,
        "meta_ephemeris_type": 0,
        "meta_classification_type": "U",
        "meta_norad_cat_id": 60453,
        "meta_element_set_no": 999,
        "meta_rev_at_epoch": 7225,
        "meta_bstar": 0.00043040967,
        "meta_mean_motion_dot": 8.11e-05,
        "meta_mean_motion_ddot": 0,
        "tle_line1": "1 60453U 24146B   25344.58184582  .00008110  00000+0  43041-3 0  9998",
        "tle_line2": "2 60453  45.0385  53.4450 0009676 300.0370  59.9549 15.15788130 72253"
      },
      "geometry": {
        "type": "Point",
        "coordinates": [
          26.06322488824045,
          -23.419279905338087
        ]
      }
    },
    {
      "type": "Feature",
      "properties": {
        "norad_id": 60989,
        "name": "SENTINEL-2C",
        "group": "resource",
        "lat": -77.69331887911022,
        "lon": 101.13137170122197,
        "alt_km": 797.1859931775789,
        "timestamp": "2025-12-10T21:43:21.744497+00:00",
        "meta_object_name": "SENTINEL-2C",
        "meta_object_id": "2024-157A",
        "meta_epoch": "2025-12-10T15:23:17.522592",
        "meta_mean_motion": 14.30816364,
        "meta_eccentricity": 0.00012079,
        "meta_inclination": 98.5684,
        "meta_ra_of_asc_node": 57.154,
        "meta_arg_of_pericenter": 97.9818,
        "meta_mean_anomaly": 262.1502,
        "meta_ephemeris_type": 0,
        "meta_classification_type": "U",
        "meta_norad_cat_id": 60989,
        "meta_element_set_no": 999,
        "meta_rev_at_epoch": 6602,
        "meta_bstar": 0.000111802,
        "meta_mean_motion_dot": 2.49e-06,
        "meta_mean_motion_ddot": 0,
        "tle_line1": "1 60989U 24157A   25344.64117503  .00000249  00000+0  11180-3 0  9994",
        "tle_line2": "2 60989  98.5684  57.1540 0001207  97.9818 262.1502 14.30816364 66026"
      },
      "geometry": {
        "type": "Point",
        "coordinates": [
          101.13137170122197,
          -77.69331887911022
        ]
      }
    },
    {
      "type": "Feature",
      "properties": {
        "norad_id": 61735,
        "name": "IONOSFERA-M 1",
        "group": "resource",
        "lat": -57.65606909141215,
        "lon": 20.70599742257069,
        "alt_km": 823.8780421285737,
        "timestamp": "2025-12-10T21:43:21.744507+00:00",
        "meta_object_name": "IONOSFERA-M 1",
        "meta_object_id": "2024-199A",
        "meta_epoch": "2025-12-10T15:32:26.260224",
        "meta_mean_motion": 14.22713322,
        "meta_eccentricity": 0.00010606,
        "meta_inclination": 98.7411,
        "meta_ra_of_asc_node": 214.5118,
        "meta_arg_of_pericenter": 24.855,
        "meta_mean_anomaly": 335.2679,
        "meta_ephemeris_type": 0,
        "meta_classification_type": "U",
        "meta_norad_cat_id": 61735,
        "meta_element_set_no": 999,
        "meta_rev_at_epoch": 10089,
        "meta_bstar": 7.1642745e-05,
        "meta_mean_motion_dot": 1.16e-06,
        "meta_mean_motion_ddot": 0,
        "tle_line1": "1 61735U 24199A   25344.64752616  .00000116  00000+0  71643-4 0  9994",
        "tle_line2": "2 61735  98.7411 214.5118 0001060  24.8550 335.2679 14.22713322100897"
      },
      "geometry": {
        "type": "Point",
        "coordinates": [
          20.70599742257069,
          -57.65606909141215
        ]
      }
    },
    {
      "type": "Feature",
      "properties": {
        "norad_id": 61736,
        "name": "IONOSFERA-M 2",
        "group": "resource",
        "lat": 60.06853820900669,
        "lon": -160.8176771530053,
        "alt_km": 809.6066018318443,
        "timestamp": "2025-12-10T21:43:21.744518+00:00",
        "meta_object_name": "IONOSFERA-M 2",
        "meta_object_id": "2024-199B",
        "meta_epoch": "2025-12-10T14:41:03.610176",
        "meta_mean_motion": 14.22715517,
        "meta_eccentricity": 0.00015919,
        "meta_inclination": 98.7403,
        "meta_ra_of_asc_node": 214.3889,
        "meta_arg_of_pericenter": 113.4835,
        "meta_mean_anomaly": 246.651,
        "meta_ephemeris_type": 0,
        "meta_classification_type": "U",
        "meta_norad_cat_id": 61736,
        "meta_element_set_no": 999,
        "meta_rev_at_epoch": 10401,
        "meta_bstar": 7.2068942e-05,
        "meta_mean_motion_dot": 1.17e-06,
        "meta_mean_motion_ddot": 0,
        "tle_line1": "1 61736U 24199B   25344.61184734  .00000117  00000+0  72069-4 0  9996",
        "tle_line2": "2 61736  98.7403 214.3889 0001591 113.4835 246.6510 14.22715517104017"
      },
      "geometry": {
        "type": "Point",
        "coordinates": [
          -160.8176771530053,
          60.06853820900669
        ]
      }
    }
  ]
}